QIANFAN-25              
1 61558U 24185G   25269.28355487  .00000635  00000+0  38041-3 0  9993
2 61558  88.9741  86.9574 0008962 173.7938 186.3357 14.05798863 58621
QIANFAN-26              
1 61559U 24185H   25269.25783976  .00000418  00000+0  40539-3 0  9993
2 61559  88.9746  88.1164 0003971 235.2302 124.8491 13.77746188 58009
QIANFAN-27              
1 61560U 24185J   25269.27784590  .00001021  00000+0  41241-3 0  9992
2 61560  88.9741  86.0280 0008203 168.1961 191.9427 14.27178384 59110
QIANFAN-28              
1 61561U 24185K   25269.29545679  .00001682  00000+0  67539-3 0  9999
2 61561  88.9757  86.0232 0007274 167.0686 193.0697 14.27780155 59122
QIANFAN-29              
1 61562U 24185L   25269.26831679  .00000256  00000+0  37750-3 0  9993
2 61562  88.9721  89.3193 0008311 277.2184  82.8022 13.50970321 57335
QIANFAN-30              
1 61563U 24185M   25269.25866603  .00000246  00000+0  36846-3 0  9992
2 61563  88.9742  88.8159 0005762 257.4611 102.5895 13.49948076 57616
QIANFAN-31              
1 61564U 24185N   25269.31333984  .00000293  00000+0  38882-3 0  9995
2 61564  88.9725  88.7348 0005372 253.0968 106.9598 13.57920378 57657
QIANFAN-32              
1 61565U 24185P   25269.27003950  .00000255  00000+0  37817-3 0  9993
2 61565  88.9784  88.9255 0007618 290.2694  69.7638 13.50700018 57589
